     2.100          NAVIGATION                              RINEX VERSION / TYPE
fic2rin                                 09/29/2015 00:04:04 PGM / RUN BY / DATE
                                                            END OF HEADER
23 15  9 28 20  0  0.0 -.135858543217D-03 -.216004991671D-11  .000000000000D+00
     .840000000000D+02  .119500000000D+03  .506556814410D-08 -.148993606227D+01
     .606477260590D-05  .104040215956D-01  .582449138165D-05  .515379443741D+04
     .158400000000D+06  .150874257088D-06 -.209169652276D+01 -.189989805222D-06
     .947433889842D+00  .258656250000D+03 -.262793658950D+01 -.848535344903D-08
     .564666377764D-09  .100000000000D+01  .186400000000D+04  .000000000000D+00
     .240000000000D+01  .000000000000D+00 -.200234353542D-07  .840000000000D+02
     .151206000000D+06  .400000000000D+01
24 15  9 28 20  0  0.0 -.547198578715D-05 -.682121026330D-12  .000000000000D+00
     .370000000000D+02 -.772187500000D+02  .499485091273D-08 -.217548478855D+01
    -.391528010368D-05  .345562503207D-02  .347569584846D-05  .515365285301D+04
     .158400000000D+06 -.149011611938D-07 -.106449097986D+01 -.465661287308D-07
     .951888277899D+00  .308093750000D+03  .300446273879D+00 -.858428614140D-08
    -.371444043564D-09  .100000000000D+01  .186400000000D+04  .000000000000D+00
     .240000000000D+01  .000000000000D+00  .232830643654D-08  .370000000000D+02
     .151206000000D+06  .400000000000D+01
25 15  9 28 20  0  0.0 -.450639054179D-04 -.522959453519D-11  .000000000000D+00
     .210000000000D+02 -.383125000000D+02  .364158025786D-08  .202643062264D+01
    -.200793147087D-05  .463796418626D-02  .138077884912D-04  .515362950325D+04
     .158400000000D+06 -.484287738800D-07  .123185748324D-02 -.670552253723D-07
     .978867445301D+00  .121718750000D+03  .741122739994D+00 -.761531720853D-08
    -.246438836595D-10  .100000000000D+01  .186400000000D+04  .000000000000D+00
     .240000000000D+01  .000000000000D+00  .512227416039D-08  .210000000000D+02
     .151206000000D+06  .400000000000D+01
26 15  9 28 20  0  0.0 -.668275170028D-04 -.120508047985D-10  .000000000000D+00
     .320000000000D+02 -.434062500000D+02  .402623913759D-08  .112519142719D+01
    -.227801501751D-05  .170035520568D-03  .146739184856D-04  .515365096283D+04
     .158400000000D+06 -.204890966415D-07 -.351377708292D-02  .000000000000D+00
     .960931819490D+00  .955000000000D+02  .338454164169D+00 -.780282501898D-08
    -.485734518507D-10  .100000000000D+01  .186400000000D+04  .000000000000D+00
     .240000000000D+01  .000000000000D+00  .745058059692D-08  .320000000000D+02
     .151206000000D+06  .400000000000D+01
27 15  9 28 20  0  0.0  .233217142522D-04  .295585778076D-11  .000000000000D+00
     .600000000000D+02  .833125000000D+02  .467448042516D-08 -.375726366123D+00
     .440701842308D-05  .267028110102D-02  .712834298611D-05  .515369753075D+04
     .158400000000D+06  .838190317154D-07  .104388034398D+01  .186264514923D-08
     .968451528556D+00  .246281250000D+03  .320529849641D+00 -.832391815317D-08
     .730744724165D-09  .100000000000D+01  .186400000000D+04  .000000000000D+00
     .240000000000D+01  .000000000000D+00  .139698386192D-08  .600000000000D+02
     .151206000000D+06  .400000000000D+01
28 15  9 28 20  0  0.0  .470749102533D-03  .261479726760D-11  .000000000000D+00
     .116000000000D+03 -.378750000000D+02  .350800326527D-08  .487489961685D+00
    -.193156301975D-05  .197121404344D-01  .148285180330D-04  .515370803070D+04
     .158400000000D+06 -.296160578728D-06  .731836238431D-01 -.135973095894D-06
     .989634911501D+00  .114906250000D+03 -.165723606432D+01 -.783925510787D-08
    -.653598653579D-10  .100000000000D+01  .186400000000D+04  .000000000000D+00
     .240000000000D+01  .000000000000D+00 -.111758708954D-07  .116000000000D+03
     .151206000000D+06  .400000000000D+01
29 15  9 28 20  0  0.0  .636794604361D-03  .216004991671D-11  .000000000000D+00
     .190000000000D+02  .828750000000D+02  .452911722734D-08  .212902366460D+01
     .404752790928D-05  .872566946782D-03  .643730163574D-05  .515368415451D+04
     .158400000000D+06 -.372529029846D-08  .110188271978D+01  .521540641785D-07
     .974376983147D+00  .262468750000D+03 -.458711883420D+00 -.818355516363D-08
     .626097508046D-09  .100000000000D+01  .186400000000D+04  .000000000000D+00
     .240000000000D+01  .000000000000D+00 -.102445483208D-07  .190000000000D+02
     .151206000000D+06  .400000000000D+01
30 15  9 28 20  0  0.0  .323737040162D-04  .636646291241D-11  .000000000000D+00
     .100000000000D+02 -.924687500000D+02  .502020911186D-08  .308065022645D+01
    -.488199293613D-05  .171274296008D-02  .392459332943D-05  .515368823051D+04
     .158400000000D+06  .279396772385D-07 -.973884310373D+00  .558793544769D-07
     .954563835107D+00  .301531250000D+03  .313691479163D+01 -.860500128999D-08
    -.536093759028D-09  .100000000000D+01  .186400000000D+04  .000000000000D+00
     .240000000000D+01  .000000000000D+00  .325962901115D-08  .100000000000D+02
     .151206000000D+06  .400000000000D+01
31 15  9 28 20  0  0.0  .301176682115D-03 -.136424205266D-11  .000000000000D+00
     .710000000000D+02 -.878125000000D+02  .456483300076D-08  .314109948342D+01
    -.450387597084D-05  .813274201937D-02  .440701842308D-05  .515359505272D+04
     .158400000000D+06 -.726431608200D-07 -.101318071404D+01  .931322574615D-07
     .973631022200D+00  .303812500000D+03 -.519762051547D+00 -.824498629392D-08
    -.523950396066D-09  .100000000000D+01  .186400000000D+04  .000000000000D+00
     .240000000000D+01  .000000000000D+00 -.135041773319D-07  .710000000000D+02
     .151206000000D+06  .400000000000D+01
32 15  9 28 20  0  0.0 -.299387611449D-04  .111413100967D-10  .000000000000D+00
     .660000000000D+02  .249062500000D+02  .441268380599D-08 -.269661923574D+01
     .109337270260D-05  .113331885077D-01  .155176967382D-04  .515369715500D+04
     .158400000000D+06 -.219792127609D-06 -.306053234526D+01 -.173225998878D-06
     .947421772491D+00  .691562500000D+02  .132673262145D+00 -.788032824730D-08
    -.165364030933D-09  .100000000000D+01  .186400000000D+04  .000000000000D+00
     .240000000000D+01  .000000000000D+00 -.372529029846D-08  .660000000000D+02
     .151206000000D+06  .400000000000D+01
21 15  9 28 19 59 44.0 -.483033247292D-03 -.272848410532D-11  .000000000000D+00
     .000000000000D+00 -.746562500000D+02  .553344477590D-08  .218541106077D+01
    -.419653952122D-05  .225918174256D-01  .398233532906D-05  .515374815941D+04
     .158384000000D+06  .173225998878D-06  .207525361028D+01 -.402331352234D-06
     .934480085258D+00  .289562500000D+03 -.187537214923D+01 -.846320966951D-08
    -.395016454021D-09  .100000000000D+01  .186400000000D+04  .000000000000D+00
     .240000000000D+01  .000000000000D+00 -.116415321827D-07  .000000000000D+00
     .156096000000D+06  .400000000000D+01
27 15  9 28 19 59 44.0  .233217142522D-04  .295585778076D-11  .000000000000D+00
     .180000000000D+02  .833125000000D+02  .467448042516D-08 -.378058822227D+00
     .440701842308D-05  .267028342932D-02  .712834298611D-05  .515369752693D+04
     .158384000000D+06  .838190317154D-07  .104388047857D+01  .186264514923D-08
     .968451519779D+00  .246281250000D+03  .320528614938D+00 -.832391815317D-08
     .730744724165D-09  .100000000000D+01  .186400000000D+04  .000000000000D+00
     .240000000000D+01  .000000000000D+00  .139698386192D-08  .180000000000D+02
     .156576000000D+06  .400000000000D+01
21 15  9 28 21 59 44.0 -.483052805066D-03 -.272848410532D-11  .000000000000D+00
     .200000000000D+01 -.711562500000D+02  .555451708222D-08 -.304764337721D+01
    -.388547778130D-05  .225914139301D-01  .381097197533D-05  .515374903870D+04
     .165584000000D+06  .387430191040D-06  .207519243836D+01 -.242143869400D-06
     .934477324731D+00  .290281250000D+03 -.187536037128D+01 -.847499587474D-08
    -.299298181256D-09  .100000000000D+01  .186400000000D+04  .000000000000D+00
     .240000000000D+01  .000000000000D+00 -.116415321827D-07  .200000000000D+01
     .158406000000D+06  .400000000000D+01
27 15  9 28 21 59 44.0  .233431346714D-04  .295585778076D-11  .000000000000D+00
     .190000000000D+02  .840000000000D+02  .457661920599D-08  .672132162671D+00
     .433996319771D-05  .267060124315D-02  .707246363163D-05  .515369811249D+04
     .165584000000D+06  .428408384323D-07  .104382122746D+01  .130385160446D-06
     .968457011573D+00  .248843750000D+03  .320504233945D+00 -.822355682986D-08
     .672885171225D-09  .100000000000D+01  .186400000000D+04  .000000000000D+00
     .240000000000D+01  .000000000000D+00  .139698386192D-08  .190000000000D+02
     .158406000000D+06  .400000000000D+01
 1 15  9 28 22  0  0.0  .135740265250D-05  .682121026330D-12  .000000000000D+00
     .700000000000D+02 -.664375000000D+02  .503199531709D-08 -.144001186451D+01
    -.354833900928D-05  .471557804849D-02  .479258596897D-05  .515365206909D+04
     .165600000000D+06  .465661287308D-07  .210174488133D+01 -.204890966415D-07
     .962708918245D+00  .285250000000D+03  .481285547635D+00 -.846713840459D-08
    -.348228790841D-09  .100000000000D+01  .186400000000D+04  .000000000000D+00
     .240000000000D+01  .000000000000D+00  .512227416039D-08  .700000000000D+02
     .158406000000D+06  .400000000000D+01
 2 15  9 28 22  0  0.0  .590783543885D-03  .147792889038D-11  .000000000000D+00
     .490000000000D+02 -.537500000000D+02  .569416575629D-08 -.867454530220D+00
    -.245496630669D-05  .148226816673D-01  .403262674809D-05  .515362700653D+04
     .165600000000D+06  .132247805595D-06  .206146796560D+01  .325962901115D-06
     .941353961342D+00  .290593750000D+03 -.222891059631D+01 -.893394356318D-08
    -.315013121561D-09  .100000000000D+01  .186400000000D+04  .000000000000D+00
     .240000000000D+01  .000000000000D+00 -.204890966415D-07  .490000000000D+02
     .158406000000D+06  .400000000000D+01
